start=new Date('2023-02-04T00:00:00.000Z').valueOf();
sats=[{"MEAN_MOTION":"15.01263556","MEAN_MOTION_DDOT":"0.0000000000000","CENTER_NAME":"EARTH","PERIAPSIS":"560.332","SITE":"AFWTR","GP_ID":"224314937","MEAN_ELEMENT_THEORY":"SGP4","EPOCH":"2023-02-03T06:29:52.876032","COUNTRY_CODE":"US","REV_AT_EPOCH":"2363","LAUNCH_DATE":"2022-08-31","ARG_OF_PERICENTER":"84.9340","OBJECT_ID":"2022-105L","OBJECT_TYPE":"PAYLOAD","BSTAR":"-0.00016799000000","INCLINATION":"97.6535","ECCENTRICITY":"0.00038450","NORAD_CAT_ID":"53658","TIME_SYSTEM":"UTC","DECAY_DATE":null,"CLASSIFICATION_TYPE":"U","MEAN_ANOMALY":"275.2323","FILE":"3770323","ELEMENT_SET_NO":"999","SEMIMAJOR_AXIS":"6941.136","TLE_LINE2":"2 53658  97.6535 277.2739 0003845  84.9340 275.2323 15.01263556 23631","MEAN_MOTION_DOT":"-0.00002217","RCS_SIZE":"MEDIUM","PERIOD":"95.919","RA_OF_ASC_NODE":"277.2739","TLE_LINE1":"1 53658U 22105L   23034.27075088 -.00002217  00000-0 -16799-3 0  9995","EPHEMERIS_TYPE":"0","REF_FRAME":"TEME","APOAPSIS":"565.670","OBJECT_NAME":"STARLINK-4452"},{"RA_OF_ASC_NODE":"277.6031","PERIOD":"95.919","APOAPSIS":"565.498","OBJECT_NAME":"STARLINK-4463","EPHEMERIS_TYPE":"0","TLE_LINE1":"1 53659U 22105M   23034.60586212  .00001639  00000-0  13213-3 0  9992","REF_FRAME":"TEME","CLASSIFICATION_TYPE":"U","MEAN_ANOMALY":"270.7342","DECAY_DATE":null,"TLE_LINE2":"2 53659  97.6537 277.6031 0003591  89.4294 270.7342 15.01262120 23681","SEMIMAJOR_AXIS":"6941.140","RCS_SIZE":"LARGE","MEAN_MOTION_DOT":"0.00001639","ELEMENT_SET_NO":"999","FILE":"3770323","OBJECT_ID":"2022-105M","OBJECT_TYPE":"PAYLOAD","INCLINATION":"97.6537","BSTAR":"0.00013213000000","REV_AT_EPOCH":"2368","LAUNCH_DATE":"2022-08-31","ARG_OF_PERICENTER":"89.4294","NORAD_CAT_ID":"53659","TIME_SYSTEM":"UTC","ECCENTRICITY":"0.00035910","PERIAPSIS":"560.513","CENTER_NAME":"EARTH","MEAN_MOTION":"15.01262120","MEAN_MOTION_DDOT":"0.0000000000000","COUNTRY_CODE":"US","EPOCH":"2023-02-03T14:32:26.487168","GP_ID":"224315188","MEAN_ELEMENT_THEORY":"SGP4","SITE":"AFWTR"},{"PERIAPSIS":"560.760","CENTER_NAME":"EARTH","MEAN_MOTION":"15.01257662","MEAN_MOTION_DDOT":"0.0000000000000","COUNTRY_CODE":"US","EPOCH":"2023-02-03T09:33:50.489856","GP_ID":"224313937","SITE":"AFWTR","MEAN_ELEMENT_THEORY":"SGP4","OBJECT_TYPE":"PAYLOAD","OBJECT_ID":"2022-105N","INCLINATION":"97.6521","BSTAR":"0.00004644700000","REV_AT_EPOCH":"2365","ARG_OF_PERICENTER":"91.8800","LAUNCH_DATE":"2022-08-31","NORAD_CAT_ID":"53660","TIME_SYSTEM":"UTC","ECCENTRICITY":"0.00032540","CLASSIFICATION_TYPE":"U","MEAN_ANOMALY":"268.2797","DECAY_DATE":null,"TLE_LINE2":"2 53660  97.6521 277.3970 0003254  91.8800 268.2797 15.01257662 23659","SEMIMAJOR_AXIS":"6941.154","RCS_SIZE":"LARGE","MEAN_MOTION_DOT":"0.00000538","ELEMENT_SET_NO":"999","FILE":"3770323","RA_OF_ASC_NODE":"277.3970","PERIOD":"95.920","APOAPSIS":"565.278","OBJECT_NAME":"STARLINK-4473","EPHEMERIS_TYPE":"0","TLE_LINE1":"1 53660U 22105N   23034.39850104  .00000538  00000-0  46447-4 0  9997","REF_FRAME":"TEME"},{"CENTER_NAME":"EARTH","PERIAPSIS":"560.468","MEAN_MOTION_DDOT":"0.0000000000000","MEAN_MOTION":"15.01256016","COUNTRY_CODE":"US","GP_ID":"224349191","MEAN_ELEMENT_THEORY":"SGP4","SITE":"AFWTR","EPOCH":"2023-02-03T14:27:06.935904","BSTAR":"-0.00000153610000","INCLINATION":"97.6522","OBJECT_ID":"2022-105P","OBJECT_TYPE":"PAYLOAD","ARG_OF_PERICENTER":"84.7553","LAUNCH_DATE":"2022-08-31","REV_AT_EPOCH":"2368","TIME_SYSTEM":"UTC","NORAD_CAT_ID":"53661","ECCENTRICITY":"0.00036830","MEAN_ANOMALY":"275.4091","CLASSIFICATION_TYPE":"U","DECAY_DATE":null,"MEAN_MOTION_DOT":"-0.00000079","RCS_SIZE":"LARGE","SEMIMAJOR_AXIS":"6941.159","TLE_LINE2":"2 53661  97.6522 277.5998 0003683  84.7553 275.4091 15.01256016 23687","FILE":"3770748","ELEMENT_SET_NO":"999","RA_OF_ASC_NODE":"277.5998","PERIOD":"95.920","APOAPSIS":"565.581","OBJECT_NAME":"STARLINK-4472","REF_FRAME":"TEME","TLE_LINE1":"1 53661U 22105P   23034.60216361 -.00000079  00000-0 -15361-5 0  9997","EPHEMERIS_TYPE":"0"},{"TIME_SYSTEM":"UTC","NORAD_CAT_ID":"53662","ECCENTRICITY":"0.00030290","BSTAR":"0.00002952700000","INCLINATION":"97.6526","OBJECT_ID":"2022-105Q","OBJECT_TYPE":"PAYLOAD","LAUNCH_DATE":"2022-08-31","ARG_OF_PERICENTER":"92.1813","REV_AT_EPOCH":"2367","COUNTRY_CODE":"US","GP_ID":"224315437","SITE":"AFWTR","MEAN_ELEMENT_THEORY":"SGP4","EPOCH":"2023-02-03T12:40:28.099200","CENTER_NAME":"EARTH","PERIAPSIS":"560.918","MEAN_MOTION_DDOT":"0.0000000000000","MEAN_MOTION":"15.01257337","APOAPSIS":"565.123","OBJECT_NAME":"STARLINK-4357","REF_FRAME":"TEME","TLE_LINE1":"1 53662U 22105Q   23034.52810300  .00000320  00000-0  29527-4 0  9997","EPHEMERIS_TYPE":"0","RA_OF_ASC_NODE":"277.5190","PERIOD":"95.920","MEAN_MOTION_DOT":"0.00000320","RCS_SIZE":"LARGE","SEMIMAJOR_AXIS":"6941.155","TLE_LINE2":"2 53662  97.6526 277.5190 0003029  92.1813 267.9758 15.01257337 23674","FILE":"3770323","ELEMENT_SET_NO":"999","MEAN_ANOMALY":"267.9758","CLASSIFICATION_TYPE":"U","DECAY_DATE":null},{"SITE":"AFWTR","GP_ID":"224315687","MEAN_ELEMENT_THEORY":"SGP4","EPOCH":"2023-02-03T06:24:33.110496","COUNTRY_CODE":"US","MEAN_MOTION":"15.01252682","MEAN_MOTION_DDOT":"0.0000000000000","CENTER_NAME":"EARTH","PERIAPSIS":"560.368","ECCENTRICITY":"0.00038420","NORAD_CAT_ID":"53663","TIME_SYSTEM":"UTC","REV_AT_EPOCH":"2363","LAUNCH_DATE":"2022-08-31","ARG_OF_PERICENTER":"89.1038","OBJECT_ID":"2022-105R","OBJECT_TYPE":"PAYLOAD","BSTAR":"0.00008820900000","INCLINATION":"97.6518","FILE":"3770323","ELEMENT_SET_NO":"999","SEMIMAJOR_AXIS":"6941.169","TLE_LINE2":"2 53663  97.6518 277.2655 0003842  89.1038 271.0627 15.01252682 23632","MEAN_MOTION_DOT":"0.00001074","RCS_SIZE":"LARGE","DECAY_DATE":null,"CLASSIFICATION_TYPE":"U","MEAN_ANOMALY":"271.0627","TLE_LINE1":"1 53663U 22105R   23034.26704989  .00001074  00000-0  88209-4 0  9993","EPHEMERIS_TYPE":"0","REF_FRAME":"TEME","OBJECT_NAME":"STARLINK-4457","APOAPSIS":"565.701","PERIOD":"95.920","RA_OF_ASC_NODE":"277.2655"},{"PERIAPSIS":"561.139","CENTER_NAME":"EARTH","MEAN_MOTION":"15.01254024","MEAN_MOTION_DDOT":"0.0000000000000","COUNTRY_CODE":"US","EPOCH":"2023-02-03T06:13:53.210496","GP_ID":"224314437","MEAN_ELEMENT_THEORY":"SGP4","SITE":"AFWTR","OBJECT_ID":"2022-105S","OBJECT_TYPE":"PAYLOAD","INCLINATION":"97.6527","BSTAR":"0.00005153200000","REV_AT_EPOCH":"2363","LAUNCH_DATE":"2022-08-31","ARG_OF_PERICENTER":"91.5976","NORAD_CAT_ID":"53664","TIME_SYSTEM":"UTC","ECCENTRICITY":"0.00027250","CLASSIFICATION_TYPE":"U","MEAN_ANOMALY":"268.5560","DECAY_DATE":null,"TLE_LINE2":"2 53664  97.6527 277.2513 0002725  91.5976 268.5560 15.01254024 23632","SEMIMAJOR_AXIS":"6941.165","RCS_SIZE":"LARGE","MEAN_MOTION_DOT":"0.00000603","ELEMENT_SET_NO":"999","FILE":"3770323","RA_OF_ASC_NODE":"277.2513","PERIOD":"95.920","APOAPSIS":"564.922","OBJECT_NAME":"STARLINK-4471","EPHEMERIS_TYPE":"0","TLE_LINE1":"1 53664U 22105S   23034.25964364  .00000603  00000-0  51532-4 0  9994","REF_FRAME":"TEME"},{"TLE_LINE1":"1 53665U 22105T   23034.66350428  .00001622  00000-0  13085-3 0  9992","EPHEMERIS_TYPE":"0","REF_FRAME":"TEME","OBJECT_NAME":"STARLINK-4334","APOAPSIS":"565.624","PERIOD":"95.920","RA_OF_ASC_NODE":"277.6573","FILE":"3770748","ELEMENT_SET_NO":"999","SEMIMAJOR_AXIS":"6941.167","TLE_LINE2":"2 53665  97.6509 277.6573 0003734  94.6840 265.4810 15.01253475 23697","MEAN_MOTION_DOT":"0.00001622","RCS_SIZE":"LARGE","DECAY_DATE":null,"CLASSIFICATION_TYPE":"U","MEAN_ANOMALY":"265.4810","ECCENTRICITY":"0.00037340","NORAD_CAT_ID":"53665","TIME_SYSTEM":"UTC","REV_AT_EPOCH":"2369","ARG_OF_PERICENTER":"94.6840","LAUNCH_DATE":"2022-08-31","OBJECT_ID":"2022-105T","OBJECT_TYPE":"PAYLOAD","BSTAR":"0.00013085000000","INCLINATION":"97.6509","GP_ID":"224349692","MEAN_ELEMENT_THEORY":"SGP4","SITE":"AFWTR","EPOCH":"2023-02-03T15:55:26.769792","COUNTRY_CODE":"US","MEAN_MOTION":"15.01253475","MEAN_MOTION_DDOT":"0.0000000000000","CENTER_NAME":"EARTH","PERIAPSIS":"560.440"},{"MEAN_ANOMALY":"267.8142","CLASSIFICATION_TYPE":"U","DECAY_DATE":null,"MEAN_MOTION_DOT":"0.00004555","RCS_SIZE":"LARGE","SEMIMAJOR_AXIS":"6941.204","TLE_LINE2":"2 53666  97.6558 277.2372 0001915  92.3301 267.8142 15.01241613 23630","FILE":"3770323","ELEMENT_SET_NO":"999","RA_OF_ASC_NODE":"277.2372","PERIOD":"95.921","OBJECT_NAME":"STARLINK-4449","APOAPSIS":"564.398","REF_FRAME":"TEME","TLE_LINE1":"1 53666U 22105U   23034.25618766  .00004555  00000-0  35918-3 0  9997","EPHEMERIS_TYPE":"0","CENTER_NAME":"EARTH","PERIAPSIS":"561.739","MEAN_MOTION_DDOT":"0.0000000000000","MEAN_MOTION":"15.01241613","COUNTRY_CODE":"US","GP_ID":"224314938","SITE":"AFWTR","MEAN_ELEMENT_THEORY":"SGP4","EPOCH":"2023-02-03T06:08:54.613824","BSTAR":"0.00035918000000","INCLINATION":"97.6558","OBJECT_ID":"2022-105U","OBJECT_TYPE":"PAYLOAD","LAUNCH_DATE":"2022-08-31","ARG_OF_PERICENTER":"92.3301","REV_AT_EPOCH":"2363","TIME_SYSTEM":"UTC","NORAD_CAT_ID":"53666","ECCENTRICITY":"0.00019150"},{"INCLINATION":"97.6519","BSTAR":"0.00000147280000","OBJECT_ID":"2022-105V","OBJECT_TYPE":"PAYLOAD","ARG_OF_PERICENTER":"91.2501","LAUNCH_DATE":"2022-08-31","REV_AT_EPOCH":"2363","TIME_SYSTEM":"UTC","NORAD_CAT_ID":"53667","ECCENTRICITY":"0.00030570","PERIAPSIS":"560.897","CENTER_NAME":"EARTH","MEAN_MOTION_DDOT":"0.0000000000000","MEAN_MOTION":"15.01257831","COUNTRY_CODE":"US","EPOCH":"2023-02-03T06:19:12.800640","SITE":"AFWTR","GP_ID":"224315189","MEAN_ELEMENT_THEORY":"SGP4","RA_OF_ASC_NODE":"277.2635","PERIOD":"95.920","APOAPSIS":"565.140","OBJECT_NAME":"STARLINK-4406","REF_FRAME":"TEME","EPHEMERIS_TYPE":"0","TLE_LINE1":"1 53667U 22105V   23034.26334260 -.00000040  00000-0  14728-5 0  9997","MEAN_ANOMALY":"268.9074","CLASSIFICATION_TYPE":"U","DECAY_DATE":null,"RCS_SIZE":"LARGE","MEAN_MOTION_DOT":"-0.00000040","TLE_LINE2":"2 53667  97.6519 277.2635 0003057  91.2501 268.9074 15.01257831 23634","SEMIMAJOR_AXIS":"6941.154","ELEMENT_SET_NO":"999","FILE":"3770323"}];
